CCSDS_OMM_VERS = 2.0
CREATION_DATE  = 
ORIGINATOR     = 

OBJECT_NAME    = ATLAS CENTAUR R/B
OBJECT_ID      = 1972-065B
CENTER_NAME    = EARTH
REF_FRAME      = TEME
TIME_SYSTEM    = UTC
MEAN_ELEMENT_THEORY = SGP/SGP4

EPOCH          = 2026-02-17T03:40:03.241056
MEAN_MOTION    = 14.77625539
ECCENTRICITY   = .0033996
INCLINATION    = 35.0016
RA_OF_ASC_NODE = 66.0992
ARG_OF_PERICENTER = 198.3993
MEAN_ANOMALY   = 161.5479

EPHEMERIS_TYPE = 0
CLASSIFICATION_TYPE = U
NORAD_CAT_ID   = 6155
ELEMENT_SET_NO = 999
REV_AT_EPOCH   = 83822
BSTAR          = .21362E-3
MEAN_MOTION_DOT = .1545E-4
MEAN_MOTION_DDOT = 0

CCSDS_OMM_VERS = 2.0
CREATION_DATE  = 
ORIGINATOR     = 

OBJECT_NAME    = SL-8 R/B
OBJECT_ID      = 1975-112B
CENTER_NAME    = EARTH
REF_FRAME      = TEME
TIME_SYSTEM    = UTC
MEAN_ELEMENT_THEORY = SGP/SGP4

EPOCH          = 2026-02-17T01:15:40.512672
MEAN_MOTION    = 14.38192650
ECCENTRICITY   = .0015069
INCLINATION    = 74.0592
RA_OF_ASC_NODE = 56.8767
ARG_OF_PERICENTER = 157.8997
MEAN_ANOMALY   = 202.2810

EPHEMERIS_TYPE = 0
CLASSIFICATION_TYPE = U
NORAD_CAT_ID   = 8459
ELEMENT_SET_NO = 999
REV_AT_EPOCH   = 62890
BSTAR          = .72988E-4
MEAN_MOTION_DOT = .196E-5
MEAN_MOTION_DDOT = 0

CCSDS_OMM_VERS = 2.0
CREATION_DATE  = 
ORIGINATOR     = 

OBJECT_NAME    = SL-3 R/B
OBJECT_ID      = 1977-057B
CENTER_NAME    = EARTH
REF_FRAME      = TEME
TIME_SYSTEM    = UTC
MEAN_ELEMENT_THEORY = SGP/SGP4

EPOCH          = 2026-02-17T03:00:28.537056
MEAN_MOTION    = 15.44882468
ECCENTRICITY   = .0007385
INCLINATION    = 97.5735
RA_OF_ASC_NODE = 219.1548
ARG_OF_PERICENTER = 6.3327
MEAN_ANOMALY   = 353.8013

EPHEMERIS_TYPE = 0
CLASSIFICATION_TYPE = U
NORAD_CAT_ID   = 10114
ELEMENT_SET_NO = 999
REV_AT_EPOCH   = 66515
BSTAR          = .31006E-3
MEAN_MOTION_DOT = .14489E-3
MEAN_MOTION_DDOT = 0

CCSDS_OMM_VERS = 2.0
CREATION_DATE  = 
ORIGINATOR     = 

OBJECT_NAME    = SEASAT 1
OBJECT_ID      = 1978-064A
CENTER_NAME    = EARTH
REF_FRAME      = TEME
TIME_SYSTEM    = UTC
MEAN_ELEMENT_THEORY = SGP/SGP4

EPOCH          = 2026-02-17T00:30:15.849792
MEAN_MOTION    = 14.46143736
ECCENTRICITY   = .0001771
INCLINATION    = 108.0157
RA_OF_ASC_NODE = 82.1251
ARG_OF_PERICENTER = 291.9576
MEAN_ANOMALY   = 68.1381

EPHEMERIS_TYPE = 0
CLASSIFICATION_TYPE = U
NORAD_CAT_ID   = 10967
ELEMENT_SET_NO = 999
REV_AT_EPOCH   = 50352
BSTAR          = .12101E-3
MEAN_MOTION_DOT = .295E-5
MEAN_MOTION_DDOT = 0

CCSDS_OMM_VERS = 2.0
CREATION_DATE  = 
ORIGINATOR     = 

OBJECT_NAME    = SL-14 R/B
OBJECT_ID      = 1979-011B
CENTER_NAME    = EARTH
REF_FRAME      = TEME
TIME_SYSTEM    = UTC
MEAN_ELEMENT_THEORY = SGP/SGP4

EPOCH          = 2026-02-17T04:35:04.901280
MEAN_MOTION    = 14.91883616
ECCENTRICITY   = .0017445
INCLINATION    = 82.5239
RA_OF_ASC_NODE = 116.0228
ARG_OF_PERICENTER = 123.3460
MEAN_ANOMALY   = 236.9433

EPHEMERIS_TYPE = 0
CLASSIFICATION_TYPE = U
NORAD_CAT_ID   = 11267
ELEMENT_SET_NO = 999
REV_AT_EPOCH   = 52572
BSTAR          = .62698E-4
MEAN_MOTION_DOT = .661E-5
MEAN_MOTION_DDOT = 0

CCSDS_OMM_VERS = 2.0
CREATION_DATE  = 
ORIGINATOR     = 

OBJECT_NAME    = SL-8 R/B
OBJECT_ID      = 1979-089B
CENTER_NAME    = EARTH
REF_FRAME      = TEME
TIME_SYSTEM    = UTC
MEAN_ELEMENT_THEORY = SGP/SGP4

EPOCH          = 2026-02-16T15:50:37.481856
MEAN_MOTION    = 14.42337460
ECCENTRICITY   = .0016806
INCLINATION    = 74.0693
RA_OF_ASC_NODE = 129.9721
ARG_OF_PERICENTER = 304.9486
MEAN_ANOMALY   = 55.0091

EPHEMERIS_TYPE = 0
CLASSIFICATION_TYPE = U
NORAD_CAT_ID   = 11574
ELEMENT_SET_NO = 999
REV_AT_EPOCH   = 43307
BSTAR          = .87587E-4
MEAN_MOTION_DOT = .263E-5
MEAN_MOTION_DDOT = 0

CCSDS_OMM_VERS = 2.0
CREATION_DATE  = 
ORIGINATOR     = 

OBJECT_NAME    = SL-14 R/B
OBJECT_ID      = 1980-005B
CENTER_NAME    = EARTH
REF_FRAME      = TEME
TIME_SYSTEM    = UTC
MEAN_ELEMENT_THEORY = SGP/SGP4

EPOCH          = 2026-02-16T20:31:12.258336
MEAN_MOTION    = 14.90903594
ECCENTRICITY   = .0014402
INCLINATION    = 82.5173
RA_OF_ASC_NODE = 326.9944
ARG_OF_PERICENTER = 229.4931
MEAN_ANOMALY   = 130.5034

EPHEMERIS_TYPE = 0
CLASSIFICATION_TYPE = U
NORAD_CAT_ID   = 11672
ELEMENT_SET_NO = 999
REV_AT_EPOCH   = 47338
BSTAR          = .6963E-4
MEAN_MOTION_DOT = .713E-5
MEAN_MOTION_DDOT = 0

CCSDS_OMM_VERS = 2.0
CREATION_DATE  = 
ORIGINATOR     = 

OBJECT_NAME    = SL-8 R/B
OBJECT_ID      = 1981-003B
CENTER_NAME    = EARTH
REF_FRAME      = TEME
TIME_SYSTEM    = UTC
MEAN_ELEMENT_THEORY = SGP/SGP4

EPOCH          = 2026-02-17T03:12:28.384704
MEAN_MOTION    = 15.10212020
ECCENTRICITY   = .026255
INCLINATION    = 82.9400
RA_OF_ASC_NODE = 309.0198
ARG_OF_PERICENTER = 250.2568
MEAN_ANOMALY   = 107.0176

EPHEMERIS_TYPE = 0
CLASSIFICATION_TYPE = U
NORAD_CAT_ID   = 12139
ELEMENT_SET_NO = 999
REV_AT_EPOCH   = 31157
BSTAR          = .47478E-3
MEAN_MOTION_DOT = .18023E-3
MEAN_MOTION_DDOT = 0

CCSDS_OMM_VERS = 2.0
CREATION_DATE  = 
ORIGINATOR     = 

OBJECT_NAME    = SL-3 R/B
OBJECT_ID      = 1981-046B
CENTER_NAME    = EARTH
REF_FRAME      = TEME
TIME_SYSTEM    = UTC
MEAN_ELEMENT_THEORY = SGP/SGP4

EPOCH          = 2026-02-17T03:28:38.005248
MEAN_MOTION    = 15.41420236
ECCENTRICITY   = .0020798
INCLINATION    = 81.2342
RA_OF_ASC_NODE = 314.3998
ARG_OF_PERICENTER = 90.0175
MEAN_ANOMALY   = 270.3451

EPHEMERIS_TYPE = 0
CLASSIFICATION_TYPE = U
NORAD_CAT_ID   = 12465
ELEMENT_SET_NO = 999
REV_AT_EPOCH   = 43526
BSTAR          = .38905E-3
MEAN_MOTION_DOT = .16433E-3
MEAN_MOTION_DDOT = 0

CCSDS_OMM_VERS = 2.0
CREATION_DATE  = 
ORIGINATOR     = 

OBJECT_NAME    = SL-3 R/B
OBJECT_ID      = 1981-103B
CENTER_NAME    = EARTH
REF_FRAME      = TEME
TIME_SYSTEM    = UTC
MEAN_ELEMENT_THEORY = SGP/SGP4

EPOCH          = 2026-02-17T02:50:39.357312
MEAN_MOTION    = 15.21120528
ECCENTRICITY   = .0013253
INCLINATION    = 81.1557
RA_OF_ASC_NODE = 237.5628
ARG_OF_PERICENTER = 358.8008
MEAN_ANOMALY   = 1.3189

EPHEMERIS_TYPE = 0
CLASSIFICATION_TYPE = U
NORAD_CAT_ID   = 12904
ELEMENT_SET_NO = 999
REV_AT_EPOCH   = 97010
BSTAR          = .30012E-3
MEAN_MOTION_DOT = .6717E-4
MEAN_MOTION_DDOT = 0

CCSDS_OMM_VERS = 2.0
CREATION_DATE  = 
ORIGINATOR     = 

OBJECT_NAME    = SL-3 R/B
OBJECT_ID      = 1982-013B
CENTER_NAME    = EARTH
REF_FRAME      = TEME
TIME_SYSTEM    = UTC
MEAN_ELEMENT_THEORY = SGP/SGP4

EPOCH          = 2026-02-17T03:14:56.974560
MEAN_MOTION    = 15.21781455
ECCENTRICITY   = .0021706
INCLINATION    = 81.1753
RA_OF_ASC_NODE = 184.8518
ARG_OF_PERICENTER = 248.2832
MEAN_ANOMALY   = 111.6089

EPHEMERIS_TYPE = 0
CLASSIFICATION_TYPE = U
NORAD_CAT_ID   = 13068
ELEMENT_SET_NO = 999
REV_AT_EPOCH   = 40122
BSTAR          = .26495E-3
MEAN_MOTION_DOT = .6073E-4
MEAN_MOTION_DDOT = 0

CCSDS_OMM_VERS = 2.0
CREATION_DATE  = 
ORIGINATOR     = 

OBJECT_NAME    = SL-3 R/B
OBJECT_ID      = 1982-039B
CENTER_NAME    = EARTH
REF_FRAME      = TEME
TIME_SYSTEM    = UTC
MEAN_ELEMENT_THEORY = SGP/SGP4

EPOCH          = 2026-02-17T02:45:15.473088
MEAN_MOTION    = 15.09961879
ECCENTRICITY   = .003004
INCLINATION    = 81.1592
RA_OF_ASC_NODE = 239.6796
ARG_OF_PERICENTER = 31.7010
MEAN_ANOMALY   = 328.6016

EPHEMERIS_TYPE = 0
CLASSIFICATION_TYPE = U
NORAD_CAT_ID   = 13154
ELEMENT_SET_NO = 999
REV_AT_EPOCH   = 37853
BSTAR          = .17587E-3
MEAN_MOTION_DOT = .2907E-4
MEAN_MOTION_DDOT = 0

