ATLAS CENTAUR R/B       
1 06155U 72065B   26048.15281529  .00001545  00000+0  21362-3 0  9991
2 06155  35.0016  66.0992 0033996 198.3993 161.5479 14.77625539838223
SL-8 R/B                
1 08459U 75112B   26048.05255223  .00000196  00000+0  72988-4 0  9999
2 08459  74.0592  56.8767 0015069 157.8997 202.2810 14.38192650628900
SL-3 R/B                
1 10114U 77057B   26048.12533029  .00014489  00000+0  31006-3 0  9996
2 10114  97.5735 219.1548 0007385   6.3327 353.8013 15.44882468665155
SEASAT 1                
1 10967U 78064A   26048.02101678  .00000295  00000+0  12101-3 0  9996
2 10967 108.0157  82.1251 0001771 291.9576  68.1381 14.46143736503522
SL-14 R/B               
1 11267U 79011B   26048.19102895  .00000661  00000+0  62698-4 0  9997
2 11267  82.5239 116.0228 0017445 123.3460 236.9433 14.91883616525726
SL-8 R/B                
1 11574U 79089B   26047.66015604  .00000263  00000+0  87587-4 0  9997
2 11574  74.0693 129.9721 0016806 304.9486  55.0091 14.42337460433076
SL-14 R/B               
1 11672U 80005B   26047.85500299  .00000713  00000+0  69630-4 0  9995
2 11672  82.5173 326.9944 0014402 229.4931 130.5034 14.90903594473388
SL-8 R/B                
1 12139U 81003B   26048.13366186  .00018023  00000+0  47478-3 0  9998
2 12139  82.9400 309.0198 0262550 250.2568 107.0176 15.10212020311572
SL-3 R/B                
1 12465U 81046B   26048.14488432  .00016433  00000+0  38905-3 0  9995
2 12465  81.2342 314.3998 0020798  90.0175 270.3451 15.41420236435265
SL-3 R/B                
1 12904U 81103B   26048.11851108  .00006717  00000+0  30012-3 0  9993
2 12904  81.1557 237.5628 0013253 358.8008   1.3189 15.21120528970100
SL-3 R/B                
1 13068U 82013B   26048.13538165  .00006073  00000+0  26495-3 0  9998
2 13068  81.1753 184.8518 0021706 248.2832 111.6089 15.21781455401229
SL-3 R/B                
1 13154U 82039B   26048.11476242  .00002907  00000+0  17587-3 0  9991
2 13154  81.1592 239.6796 0030040  31.7010 328.6016 15.09961879378530
